{"type":"FeatureCollection","source":"codeforamerica/click_that_hood spain-provinces.geojson (solo Castilla y León, 4 decimales)","features":[{"type":"Feature","properties":{"name":"Ávila"},"geometry":{"type":"MultiPolygon","coordinates":[[[[-5.0139,41.1643],[-4.8637,41.094],[-4.815,41.1034],[-4.8135,41.1294],[-4.7862,41.1436],[-4.7221,41.1493],[-4.7127,41.0621],[-4.6383,41.0313],[-4.6067,40.9708],[-4.5664,40.9562],[-4.5596,40.8858],[-4.5316,40.8586],[-4.5567,40.8363],[-4.5464,40.8255],[-4.4938,40.8335],[-4.4738,40.7747],[-4.4311,40.7424],[-4.4196,40.6334],[-4.256,40.6515],[-4.274,40.6799],[-4.2529,40.6895],[-4.1602,40.6898],[-4.1735,40.674],[-4.1612,40.6235],[-4.2454,40.6024],[-4.2621,40.6052],[-4.2711,40.629],[-4.2907,40.6278],[-4.2786,40.6032],[-4.2893,40.5642],[-4.3282,40.5338],[-4.3157,40.4648],[-4.3413,40.4287],[-4.3211,40.4103],[-4.4217,40.4062],[-4.4437,40.3857],[-4.4386,40.3528],[-4.4606,40.3414],[-4.4558,40.3194],[-4.5029,40.3149],[-4.5268,40.3449],[-4.5462,40.3418],[-4.5294,40.2931],[-4.5695,40.2573],[-4.5657,40.2182],[-4.6542,40.1981],[-4.6873,40.212],[-4.6981,40.2822],[-4.7616,40.2609],[-4.8035,40.2753],[-4.8182,40.2548],[-4.8077,40.2353],[-4.9247,40.17],[-4.9255,40.136],[-4.9563,40.1333],[-4.9545,40.1211],[-5.0133,40.1111],[-5.0067,40.1299],[-5.027,40.1584],[-5.0681,40.1503],[-5.1414,40.0918],[-5.1998,40.0825],[-5.2153,40.1078],[-5.336,40.1158],[-5.368,40.1641],[-5.3697,40.2183],[-5.3444,40.2648],[-5.4291,40.2526],[-5.4709,40.2079],[-5.531,40.1947],[-5.61,40.2155],[-5.622,40.2459],[-5.6492,40.2497],[-5.6927,40.2921],[-5.7371,40.2938],[-5.673,40.3485],[-5.6864,40.3554],[-5.6784,40.387],[-5.6912,40.422],[-5.6342,40.4604],[-5.5609,40.4771],[-5.5746,40.4443],[-5.5259,40.4224],[-5.5115,40.4263],[-5.5098,40.4637],[-5.4655,40.4659],[-5.4285,40.5645],[-5.5247,40.5407],[-5.5162,40.5854],[-5.5009,40.5974],[-5.4997,40.5816],[-5.4477,40.5796],[-5.383,40.6208],[-5.3659,40.6488],[-5.3855,40.6714],[-5.2144,40.7578],[-5.219,40.773],[-5.1615,40.814],[-5.1638,40.8684],[-5.115,40.9028],[-5.1276,40.9541],[-5.1048,40.9603],[-5.0898,40.9966],[-5.1066,41.0295],[-5.1465,41.0436],[-5.1486,41.0922],[-5.1292,41.1054],[-5.124,41.1356],[-5.1001,41.1471],[-5.0599,41.1386],[-5.0139,41.1643]]]]}},{"type":"Feature","properties":{"name":"Burgos"},"geometry":{"type":"MultiPolygon","coordinates":[[[[-3.2492,43.196],[-3.2241,43.1701],[-3.1586,43.1781],[-3.1412,43.1654],[-3.1818,43.1209],[-3.1339,43.0972],[-3.1582,43.074],[-3.1403,43.0671],[-3.142,43.0294],[-3.1778,43.022],[-3.0603,43.0035],[-3.0415,42.9699],[-2.9812,42.9394],[-3.0189,42.9085],[-3.0921,42.8988],[-3.1493,42.9171],[-3.1447,42.9347],[-3.2247,42.9497],[-3.2485,42.9121],[-3.2772,42.9016],[-3.2826,42.8755],[-3.2055,42.8274],[-3.2222,42.8386],[-3.1907,42.8695],[-3.1628,42.8567],[-3.1149,42.8892],[-3.1132,42.8611],[-3.1592,42.8046],[-3.1233,42.7893],[-3.1479,42.7567],[-3.0497,42.7656],[-3.042,42.7395],[-3.017,42.7411],[-2.9806,42.7038],[-2.9314,42.7084],[-2.9025,42.6936],[-2.8961,42.655],[-2.8581,42.6382],[-2.916,42.6195],[-2.9465,42.6393],[-3.0842,42.6407],[-3.0598,42.5892],[-3.1343,42.5421],[-3.0726,42.5289],[-3.0947,42.4881],[-3.046,42.4452],[-3.0633,42.4249],[-3.0569,42.3703],[-3.0827,42.3974],[-3.0782,42.4158],[-3.1013,42.4168],[-3.1053,42.3864],[-3.0848,42.3854],[-3.0635,42.3567],[-3.1097,42.3514],[-3.0886,42.2457],[-3.1291,42.1976],[-3.0344,42.086],[-2.9312,42.0868],[-2.9136,42.0229],[-2.9505,41.9939],[-2.9708,41.9293],[-3.0081,41.9222],[-3.0168,41.8869],[-3.0972,41.8811],[-3.1362,41.8119],[-3.1714,41.793],[-3.1945,41.8289],[-3.2344,41.8406],[-3.2433,41.864],[-3.2838,41.8838],[-3.2755,41.7687],[-3.3544,41.7373],[-3.3584,41.6934],[-3.3934,41.6906],[-3.4592,41.5896],[-3.5292,41.6126],[-3.5504,41.5966],[-3.5416,41.5776],[-3.5665,41.58],[-3.5726,41.5654],[-3.6168,41.5772],[-3.661,41.5661],[-3.7283,41.5176],[-3.7237,41.4792],[-3.7395,41.4508],[-3.7698,41.4602],[-3.7662,41.5379],[-3.8038,41.5246],[-3.7876,41.4859],[-3.8239,41.4811],[-3.8946,41.5522],[-3.9816,41.5837],[-4.0059,41.6194],[-4.0353,41.6206],[-4.026,41.6924],[-4.0767,41.7336],[-4.0558,41.7407],[-4.038,41.7899],[-4.0901,41.8309],[-4.0793,41.8484],[-4.0888,41.8706],[-4.0376,41.8728],[-3.9807,41.9006],[-3.9813,41.9307],[-3.9291,41.9594],[-3.892,41.9579],[-3.8897,41.9909],[-3.9102,41.997],[-4.033,41.9541],[-4.0148,41.9986],[-3.9711,42.0332],[-3.9817,42.051],[-4.0392,42.0534],[-4.0799,42.0368],[-4.1041,42.0616],[-4.103,42.087],[-4.0775,42.0827],[-4.0562,42.1009],[-4.1038,42.1097],[-4.1202,42.1281],[-4.205,42.1336],[-4.1886,42.1764],[-4.2314,42.2084],[-4.2288,42.2504],[-4.2441,42.2594],[-4.2648,42.3525],[-4.2805,42.3638],[-4.2727,42.3857],[-4.3216,42.3799],[-4.331,42.3909],[-4.3162,42.41],[-4.3353,42.4306],[-4.3171,42.4589],[-4.2426,42.4562],[-4.2544,42.4679],[-4.247,42.4947],[-4.2862,42.512],[-4.2721,42.52],[-4.2777,42.5447],[-4.3033,42.5554],[-4.3053,42.5708],[-4.2708,42.5814],[-4.2854,42.582],[-4.2939,42.6053],[-4.2639,42.618],[-4.2932,42.6909],[-4.2667,42.7053],[-4.257,42.6881],[-4.145,42.7525],[-4.1096,42.7339],[-4.0853,42.7641],[-3.9907,42.771],[-3.9657,42.7586],[-3.911,42.7684],[-3.8944,42.8045],[-3.8634,42.7865],[-3.8229,42.7991],[-3.8267,42.8709],[-3.8637,42.8898],[-3.8802,42.8514],[-3.9148,42.8601],[-3.8975,42.8803],[-3.9243,42.8892],[-3.8929,42.8874],[-3.9106,42.9109],[-3.9078,42.9145],[-3.8686,42.8991],[-3.8335,42.918],[-3.8395,42.9398],[-3.8874,42.9488],[-3.8913,42.9255],[-3.9335,42.8996],[-3.93,42.9148],[-3.9746,42.9124],[-3.9872,42.9405],[-3.9455,43.0058],[-3.9093,43.0161],[-3.8907,43.0418],[-3.8508,43.0392],[-3.8318,43.0638],[-3.847,43.0844],[-3.7646,43.081],[-3.7549,43.1005],[-3.7047,43.1163],[-3.6518,43.1808],[-3.6124,43.1695],[-3.6035,43.1496],[-3.4346,43.1317],[-3.2492,43.196]],[[-4.0896,42.1606],[-4.1118,42.1586],[-4.11,42.1432],[-4.0621,42.1316],[-4.0656,42.1635],[-4.0896,42.1606]],[[-4.0346,42.1066],[-4.0276,42.0879],[-4.0319,42.0786],[-4.0244,42.0836],[-4.0346,42.1066]]],[[[-2.8277,42.788],[-2.7316,42.7945],[-2.6437,42.7647],[-2.6023,42.7706],[-2.5894,42.7503],[-2.5583,42.7627],[-2.5726,42.7252],[-2.609,42.696],[-2.5778,42.6682],[-2.522,42.684],[-2.5174,42.6463],[-2.6349,42.6478],[-2.6592,42.6725],[-2.7679,42.666],[-2.7845,42.6989],[-2.8685,42.7399],[-2.8355,42.7963],[-2.8277,42.788]]],[[[-2.9349,42.5944],[-2.9452,42.6039],[-2.9345,42.6141],[-2.9226,42.6008],[-2.9349,42.5944]]],[[[-4.2478,42.736],[-4.2513,42.7265],[-4.2632,42.7305],[-4.2606,42.7389],[-4.2478,42.736]]],[[[-2.9919,42.6046],[-2.9945,42.6155],[-2.9852,42.6142],[-2.9829,42.6108],[-2.9919,42.6046]]]]}},{"type":"Feature","properties":{"name":"León"},"geometry":{"type":"MultiPolygon","coordinates":[[[[-4.8936,43.2385],[-4.8392,43.1898],[-4.8518,43.1731],[-4.8346,43.1575],[-4.8514,43.1259],[-4.8328,43.1027],[-4.7342,43.0471],[-4.7381,43.019],[-4.7948,42.9867],[-4.8092,42.9303],[-4.8555,42.8917],[-4.8656,42.8605],[-4.8984,42.8631],[-4.8959,42.7852],[-4.9356,42.7565],[-4.9159,42.7206],[-4.8717,42.708],[-4.9003,42.6701],[-4.8947,42.6239],[-4.916,42.5548],[-4.888,42.537],[-4.9,42.4507],[-4.924,42.4361],[-4.905,42.4246],[-4.9143,42.4012],[-4.9034,42.3857],[-4.9726,42.3744],[-4.9842,42.3379],[-4.9412,42.3417],[-4.9534,42.2972],[-5.0384,42.2971],[-5.0533,42.2579],[-5.0938,42.3093],[-5.112,42.3118],[-5.1827,42.2642],[-5.2365,42.2733],[-5.254,42.2398],[-5.226,42.2267],[-5.2415,42.2145],[-5.2656,42.2109],[-5.2869,42.2299],[-5.3075,42.1993],[-5.3612,42.2252],[-5.3881,42.2214],[-5.3715,42.1301],[-5.3901,42.0898],[-5.3763,42.0415],[-5.4387,42.0315],[-5.4809,42.0524],[-5.527,42.1043],[-5.5434,42.0994],[-5.5607,42.056],[-5.5777,42.0654],[-5.5866,42.0509],[-5.5885,42.0773],[-5.635,42.082],[-5.6201,42.1067],[-5.6676,42.1421],[-5.6872,42.1379],[-5.6768,42.1203],[-5.7429,42.1133],[-5.7552,42.1366],[-5.7767,42.1358],[-5.8449,42.1107],[-5.8974,42.1561],[-5.9116,42.1406],[-5.9481,42.1419],[-5.9535,42.1237],[-6.0493,42.1599],[-6.1602,42.1658],[-6.2124,42.1481],[-6.2937,42.178],[-6.3126,42.2066],[-6.4279,42.2019],[-6.4976,42.182],[-6.526,42.2034],[-6.7197,42.2134],[-6.7348,42.2356],[-6.7843,42.2536],[-6.7411,42.2987],[-6.734,42.3591],[-6.8435,42.4058],[-6.8143,42.4274],[-6.8228,42.4529],[-6.8083,42.4686],[-6.8232,42.4913],[-6.8601,42.4888],[-6.9322,42.5205],[-6.9601,42.5178],[-6.9785,42.4933],[-7.0771,42.5082],[-7.0599,42.5293],[-7.0697,42.5539],[-7.0336,42.5841],[-7.0502,42.5973],[-7.047,42.6327],[-7.0044,42.6429],[-7.0452,42.6948],[-7.0109,42.7237],[-6.9729,42.725],[-6.9595,42.755],[-6.9356,42.7409],[-6.8674,42.7872],[-6.8403,42.8234],[-6.8713,42.8738],[-6.8337,42.8821],[-6.8354,42.8736],[-6.8149,42.8708],[-6.848,42.9143],[-6.7769,42.9014],[-6.7715,42.8826],[-6.7232,42.9174],[-6.6899,42.9225],[-6.4898,42.9202],[-6.4331,42.9398],[-6.4336,42.9642],[-6.473,42.9678],[-6.4781,42.9912],[-6.4241,42.9879],[-6.4076,42.9995],[-6.4111,43.0169],[-6.3944,43.0166],[-6.397,43.0383],[-6.3591,43.0596],[-6.3265,43.0313],[-6.2852,43.0364],[-6.2268,43.0089],[-6.2156,43.0472],[-6.1784,43.0478],[-6.1367,43.021],[-6.0969,43.0306],[-6.0819,43.0757],[-6.0202,43.0549],[-5.975,43.0654],[-5.9567,43.0186],[-5.9146,42.9927],[-5.804,42.9626],[-5.7639,42.9701],[-5.7284,43.0425],[-5.6933,43.0565],[-5.5701,43.0227],[-5.4938,43.0214],[-5.4785,43.0549],[-5.3905,43.0493],[-5.3691,43.0946],[-5.2821,43.0774],[-5.2166,43.0845],[-5.1478,43.1151],[-5.1017,43.1018],[-5.0759,43.1815],[-4.9969,43.1731],[-4.9639,43.2124],[-4.8936,43.2385]],[[-5.3414,42.2688],[-5.3396,42.2319],[-5.3033,42.252],[-5.3064,42.2716],[-5.3414,42.2688]]]]}},{"type":"Feature","properties":{"name":"Soria"},"geometry":{"type":"MultiPolygon","coordinates":[[[[-2.344,42.1455],[-2.2822,42.1317],[-2.2696,42.0886],[-2.2089,42.1047],[-2.1273,42.0972],[-2.1272,42.0805],[-2.1619,42.0667],[-2.1076,42.0028],[-2.1241,41.9953],[-2.11,41.9579],[-2.0364,41.9394],[-2.0283,41.9534],[-1.9703,41.9191],[-1.8559,41.9663],[-1.8573,41.9095],[-1.8176,41.8534],[-1.8191,41.8288],[-1.8527,41.7889],[-1.8059,41.7551],[-1.8092,41.7367],[-1.7754,41.7248],[-1.8121,41.6865],[-1.8062,41.6643],[-1.859,41.6615],[-1.9231,41.5983],[-1.9932,41.6005],[-1.9937,41.5771],[-1.9673,41.5461],[-1.9811,41.4864],[-1.9533,41.4625],[-1.9537,41.4243],[-1.9373,41.4079],[-2.0293,41.3842],[-2.0436,41.3971],[-2.0356,41.4269],[-2.1015,41.4458],[-2.1168,41.4249],[-2.116,41.382],[-2.1631,41.3554],[-2.1737,41.2881],[-2.1462,41.1844],[-2.0799,41.171],[-2.0517,41.1468],[-2.0656,41.0958],[-2.0482,41.0784],[-2.0564,41.0697],[-2.1319,41.1181],[-2.1753,41.0838],[-2.2321,41.097],[-2.2635,41.0675],[-2.3234,41.0565],[-2.3553,41.0865],[-2.4189,41.0577],[-2.4695,41.0781],[-2.4823,41.1163],[-2.5089,41.1189],[-2.5365,41.1625],[-2.5756,41.1395],[-2.5953,41.1503],[-2.5775,41.1787],[-2.6221,41.188],[-2.5937,41.2002],[-2.5895,41.2245],[-2.6292,41.2152],[-2.646,41.2402],[-2.7095,41.252],[-2.7168,41.2757],[-2.7609,41.274],[-2.7755,41.2501],[-2.8222,41.2566],[-2.8669,41.2745],[-2.8668,41.3131],[-2.8884,41.3252],[-2.9412,41.3139],[-2.9501,41.2926],[-3.0619,41.2734],[-3.2074,41.3042],[-3.3505,41.3949],[-3.3304,41.4607],[-3.4133,41.4761],[-3.4214,41.5139],[-3.4515,41.5339],[-3.4797,41.5209],[-3.5383,41.552],[-3.5414,41.6082],[-3.4597,41.5893],[-3.3934,41.6906],[-3.3584,41.6934],[-3.3544,41.7373],[-3.2755,41.7687],[-3.2838,41.8838],[-3.2433,41.864],[-3.2344,41.8406],[-3.1945,41.8289],[-3.1714,41.793],[-3.1362,41.8119],[-3.0972,41.8811],[-3.0168,41.8869],[-2.9994,41.9318],[-2.9708,41.9293],[-2.9658,41.966],[-2.9322,42.018],[-2.8838,42.0095],[-2.798,42.0468],[-2.8033,42.0805],[-2.7749,42.1235],[-2.7347,42.125],[-2.7059,42.1036],[-2.7576,42.0326],[-2.7462,42.0087],[-2.5799,41.9963],[-2.5491,42.0515],[-2.5149,42.0689],[-2.5147,42.1145],[-2.4844,42.1063],[-2.4405,42.1368],[-2.344,42.1455]]]]}},{"type":"Feature","properties":{"name":"Palencia"},"geometry":{"type":"MultiPolygon","coordinates":[[[[-4.4568,43.057],[-4.3981,43.0349],[-4.3485,42.9726],[-4.2402,42.9565],[-4.2367,42.9171],[-4.2226,42.911],[-4.2247,42.8568],[-4.1997,42.8446],[-4.1812,42.8587],[-4.1443,42.8686],[-4.1255,42.8543],[-4.1404,42.829],[-4.16,42.8369],[-4.1824,42.8226],[-4.1838,42.8121],[-4.1499,42.7893],[-4.0985,42.7912],[-4.0819,42.7653],[-4.1096,42.7339],[-4.145,42.7525],[-4.257,42.6881],[-4.2667,42.7053],[-4.2932,42.6909],[-4.2639,42.618],[-4.2939,42.6053],[-4.2854,42.582],[-4.2708,42.5814],[-4.3053,42.5708],[-4.3033,42.5554],[-4.2777,42.5447],[-4.2721,42.52],[-4.2862,42.512],[-4.247,42.4947],[-4.2544,42.4679],[-4.2426,42.4562],[-4.3171,42.4589],[-4.335,42.4199],[-4.3162,42.41],[-4.3301,42.4044],[-4.3216,42.3799],[-4.2727,42.3857],[-4.2805,42.3638],[-4.2648,42.3525],[-4.2441,42.2594],[-4.2288,42.2504],[-4.2314,42.2084],[-4.1886,42.1764],[-4.205,42.1336],[-4.1202,42.1281],[-4.1038,42.1097],[-4.0562,42.1009],[-4.0775,42.0827],[-4.103,42.087],[-4.1041,42.0616],[-4.0799,42.0368],[-4.0392,42.0534],[-3.9814,42.0506],[-3.9711,42.0332],[-4.0148,41.9986],[-4.033,41.9541],[-3.8915,41.9966],[-3.892,41.9579],[-3.9291,41.9594],[-3.9813,41.9307],[-3.9807,41.9006],[-4.0376,41.8728],[-4.0888,41.8706],[-4.0793,41.8484],[-4.0901,41.8309],[-4.038,41.7899],[-4.0409,41.7684],[-4.1003,41.7747],[-4.1232,41.8073],[-4.2139,41.7994],[-4.236,41.814],[-4.3176,41.7634],[-4.3893,41.7878],[-4.4542,41.7592],[-4.5012,41.7714],[-4.4873,41.8201],[-4.4611,41.8204],[-4.4783,41.8286],[-4.4733,41.843],[-4.5121,41.8233],[-4.5492,41.831],[-4.5661,41.8126],[-4.6319,41.8617],[-4.6373,41.8881],[-4.6697,41.9005],[-4.7282,41.8688],[-4.7584,41.8258],[-4.7892,41.818],[-4.8691,41.9317],[-4.9279,41.915],[-4.9496,41.9338],[-4.9837,41.91],[-5.0049,41.9379],[-4.9655,42.0071],[-4.936,42.0179],[-4.9476,42.0543],[-4.9042,42.0784],[-4.9287,42.1183],[-4.9275,42.1502],[-4.9943,42.1449],[-5.027,42.1539],[-5.0319,42.1736],[-5.0124,42.1898],[-5.0247,42.2199],[-5.0092,42.231],[-5.0188,42.2539],[-5.0021,42.2891],[-4.9534,42.2972],[-4.9424,42.3275],[-4.9425,42.3465],[-4.9842,42.3379],[-4.9726,42.3744],[-4.9034,42.3857],[-4.9143,42.4012],[-4.905,42.4246],[-4.924,42.4361],[-4.9,42.4507],[-4.888,42.537],[-4.916,42.5548],[-4.8947,42.6239],[-4.9003,42.6701],[-4.8717,42.708],[-4.9159,42.7206],[-4.9364,42.7445],[-4.8959,42.7852],[-4.9029,42.81],[-4.8886,42.8411],[-4.9003,42.86],[-4.8656,42.8605],[-4.8555,42.8917],[-4.8092,42.9303],[-4.7948,42.9867],[-4.757,43.0155],[-4.6995,43.0267],[-4.6381,43.0167],[-4.6061,43.0358],[-4.5584,43.0195],[-4.5209,43.0474],[-4.4757,43.0387],[-4.4568,43.057]],[[-4.2567,42.728],[-4.2513,42.7265],[-4.2451,42.736],[-4.2606,42.7389],[-4.2567,42.728]]],[[[-4.0009,42.8098],[-4.0031,42.7634],[-4.0459,42.7666],[-4.0502,42.7798],[-4.0142,42.8064],[-4.011,42.8304],[-4.0009,42.8098]]],[[[-4.072,42.1653],[-4.0621,42.1316],[-4.11,42.1432],[-4.1118,42.1586],[-4.072,42.1653]]],[[[-4.098,42.8237],[-4.0877,42.8056],[-4.101,42.794],[-4.1131,42.8167],[-4.098,42.8237]]],[[[-4.1686,42.8115],[-4.1746,42.8116],[-4.1823,42.8203],[-4.1631,42.8209],[-4.1686,42.8115]]],[[[-4.0306,42.0791],[-4.0377,42.1026],[-4.0334,42.107],[-4.0244,42.0836],[-4.0306,42.0791]]]]}},{"type":"Feature","properties":{"name":"Salamanca"},"geometry":{"type":"MultiPolygon","coordinates":[[[[-6.4759,41.2873],[-6.3177,41.2709],[-6.1345,41.1904],[-6.1093,41.2126],[-6.062,41.2211],[-6.0088,41.2005],[-6.0275,41.1791],[-6.0218,41.1553],[-5.9792,41.1746],[-5.9532,41.1401],[-5.9131,41.1783],[-5.9213,41.2182],[-5.8977,41.2386],[-5.7673,41.2157],[-5.657,41.2455],[-5.6283,41.2145],[-5.5879,41.2024],[-5.5651,41.217],[-5.4853,41.1789],[-5.4843,41.1455],[-5.4698,41.1579],[-5.4769,41.1783],[-5.4076,41.1856],[-5.4002,41.1454],[-5.357,41.1408],[-5.3289,41.1172],[-5.2979,41.1259],[-5.2885,41.1956],[-5.253,41.1998],[-5.2296,41.1905],[-5.2182,41.1596],[-5.1797,41.1673],[-5.1249,41.132],[-5.1526,41.062],[-5.1408,41.0372],[-5.1066,41.0295],[-5.0898,40.9966],[-5.1048,40.9603],[-5.1276,40.9541],[-5.115,40.9028],[-5.1638,40.8684],[-5.1575,40.8213],[-5.219,40.773],[-5.2144,40.7578],[-5.3777,40.6778],[-5.3858,40.6633],[-5.3659,40.6488],[-5.383,40.6208],[-5.4477,40.5796],[-5.4997,40.5816],[-5.5009,40.5974],[-5.5162,40.5854],[-5.5247,40.5407],[-5.4285,40.5645],[-5.4671,40.464],[-5.5098,40.4637],[-5.5115,40.4263],[-5.5259,40.4224],[-5.5746,40.4443],[-5.5609,40.4771],[-5.6342,40.4604],[-5.6914,40.4216],[-5.6784,40.387],[-5.6864,40.3554],[-5.673,40.3485],[-5.7579,40.2825],[-5.8022,40.2965],[-5.782,40.3125],[-5.7993,40.3538],[-5.885,40.3261],[-5.9172,40.2777],[-5.9921,40.299],[-6.0164,40.3165],[-6.016,40.3403],[-6.1057,40.3568],[-6.0824,40.3632],[-6.0722,40.387],[-6.0852,40.3905],[-6.065,40.3966],[-6.1295,40.4208],[-6.1161,40.4416],[-6.147,40.4361],[-6.1991,40.4818],[-6.2346,40.4866],[-6.2753,40.4585],[-6.3446,40.4428],[-6.3714,40.4019],[-6.4188,40.3993],[-6.4383,40.3728],[-6.5363,40.3472],[-6.5604,40.329],[-6.5562,40.2908],[-6.587,40.2707],[-6.6718,40.2632],[-6.6901,40.2427],[-6.7182,40.2692],[-6.7556,40.2389],[-6.8345,40.2476],[-6.8651,40.2706],[-6.8629,40.2974],[-6.7942,40.3288],[-6.781,40.3647],[-6.8348,40.4082],[-6.8497,40.4526],[-6.795,40.5119],[-6.8008,40.5506],[-6.8448,40.5659],[-6.7939,40.6617],[-6.8312,40.7526],[-6.817,40.8012],[-6.8261,40.8432],[-6.8003,40.8483],[-6.8088,40.882],[-6.8485,40.9008],[-6.8602,40.9489],[-6.9216,41.0033],[-6.9301,41.0301],[-6.8084,41.0365],[-6.754,41.1028],[-6.7674,41.1352],[-6.7013,41.1804],[-6.6919,41.2083],[-6.6478,41.2476],[-6.5991,41.2442],[-6.5914,41.2555],[-6.5713,41.239],[-6.5218,41.276],[-6.497,41.2656],[-6.4787,41.275],[-6.49,41.2887],[-6.4759,41.2873]]]]}},{"type":"Feature","properties":{"name":"Segovia"},"geometry":{"type":"MultiPolygon","coordinates":[[[[-3.9638,41.5861],[-3.8679,41.5325],[-3.8239,41.4811],[-3.7876,41.4859],[-3.8038,41.5246],[-3.7662,41.5379],[-3.7698,41.4602],[-3.7395,41.4508],[-3.7237,41.4792],[-3.7283,41.5176],[-3.6717,41.5604],[-3.6168,41.5772],[-3.5726,41.5654],[-3.5464,41.5801],[-3.5383,41.552],[-3.5019,41.5292],[-3.4797,41.5209],[-3.4581,41.5368],[-3.4237,41.5163],[-3.4133,41.4761],[-3.3304,41.4607],[-3.3505,41.3949],[-3.2074,41.3042],[-3.2389,41.2879],[-3.2543,41.2584],[-3.2743,41.2603],[-3.2758,41.275],[-3.2902,41.2579],[-3.3363,41.253],[-3.4098,41.2606],[-3.4151,41.2732],[-3.4115,41.2607],[-3.3995,41.2545],[-3.4025,41.2136],[-3.4442,41.2153],[-3.4669,41.1833],[-3.5162,41.1623],[-3.6137,41.1491],[-3.6761,41.0867],[-3.7405,41.0536],[-3.7814,41.0003],[-3.8905,40.969],[-3.9379,40.9272],[-3.9797,40.7846],[-4.0701,40.7939],[-4.1471,40.694],[-4.2529,40.6895],[-4.3162,40.6668],[-4.3326,40.6371],[-4.4196,40.6334],[-4.4311,40.7424],[-4.4738,40.7747],[-4.4938,40.8335],[-4.5464,40.8255],[-4.5567,40.8363],[-4.5316,40.8586],[-4.5596,40.8858],[-4.5664,40.9562],[-4.6067,40.9708],[-4.6383,41.0313],[-4.7127,41.0621],[-4.7213,41.157],[-4.6806,41.1857],[-4.6278,41.1708],[-4.6509,41.2214],[-4.5739,41.2752],[-4.602,41.3027],[-4.5968,41.3206],[-4.5595,41.3022],[-4.5286,41.3211],[-4.4678,41.2959],[-4.4706,41.3185],[-4.5045,41.3472],[-4.484,41.3668],[-4.515,41.4097],[-4.4682,41.4131],[-4.4106,41.4416],[-4.3649,41.436],[-4.3624,41.4499],[-4.2701,41.4613],[-4.2611,41.4506],[-4.1583,41.4821],[-4.1425,41.4699],[-4.0274,41.5178],[-3.9999,41.5161],[-3.9807,41.5834],[-3.9638,41.5861]]]]}},{"type":"Feature","properties":{"name":"Valladolid"},"geometry":{"type":"MultiPolygon","coordinates":[[[[-5.112,42.3118],[-5.0938,42.3093],[-5.0548,42.2575],[-5.0384,42.2971],[-5.0021,42.2891],[-5.0188,42.2539],[-5.0124,42.1898],[-5.0319,42.1736],[-5.027,42.1539],[-4.9275,42.1502],[-4.9287,42.1183],[-4.9042,42.0784],[-4.9476,42.0543],[-4.936,42.0179],[-4.9655,42.0071],[-5.0051,41.9472],[-4.9853,41.9107],[-4.9496,41.9338],[-4.9279,41.915],[-4.8691,41.9317],[-4.7892,41.818],[-4.7584,41.8258],[-4.7282,41.8688],[-4.6648,41.8995],[-4.5661,41.8126],[-4.5492,41.831],[-4.5121,41.8233],[-4.4733,41.843],[-4.4783,41.8286],[-4.4611,41.8204],[-4.4873,41.8201],[-4.5012,41.7714],[-4.4501,41.7584],[-4.3893,41.7878],[-4.3176,41.7634],[-4.236,41.814],[-4.2139,41.7994],[-4.1232,41.8073],[-4.1003,41.7747],[-4.0409,41.7684],[-4.0764,41.7261],[-4.026,41.6924],[-4.0353,41.6206],[-4.0059,41.6194],[-3.9844,41.5975],[-3.9958,41.5211],[-4.1425,41.4699],[-4.1583,41.4821],[-4.2611,41.4506],[-4.2701,41.4613],[-4.3624,41.4499],[-4.3649,41.436],[-4.4106,41.4416],[-4.4682,41.4131],[-4.515,41.4097],[-4.484,41.3668],[-4.5045,41.3472],[-4.4706,41.3185],[-4.4715,41.2916],[-4.5286,41.3211],[-4.5595,41.3022],[-4.5968,41.3206],[-4.602,41.3027],[-4.5739,41.2752],[-4.6509,41.2214],[-4.6278,41.1708],[-4.6806,41.1857],[-4.7221,41.1493],[-4.8058,41.1352],[-4.828,41.0992],[-4.8637,41.094],[-4.9897,41.1608],[-5.1249,41.132],[-5.1797,41.1673],[-5.2182,41.1596],[-5.2296,41.1905],[-5.253,41.1998],[-5.3325,41.1783],[-5.3403,41.1941],[-5.2937,41.2263],[-5.3022,41.2593],[-5.2917,41.2692],[-5.3346,41.3706],[-5.3075,41.4141],[-5.3392,41.4256],[-5.3248,41.4553],[-5.3447,41.4793],[-5.2289,41.5284],[-5.2931,41.5744],[-5.2705,41.6011],[-5.3289,41.6159],[-5.3274,41.6805],[-5.3581,41.6997],[-5.3602,41.7271],[-5.3752,41.7198],[-5.3907,41.7526],[-5.3702,41.7778],[-5.2786,41.8148],[-5.3304,41.8318],[-5.3065,41.8578],[-5.3111,41.8916],[-5.2937,41.9199],[-5.3352,41.9375],[-5.2544,41.9809],[-5.2806,41.9788],[-5.3255,42.0204],[-5.3764,42.0396],[-5.3901,42.0898],[-5.3715,42.1301],[-5.389,42.2179],[-5.3612,42.2252],[-5.3075,42.1993],[-5.2869,42.2299],[-5.2656,42.2109],[-5.2415,42.2145],[-5.226,42.2267],[-5.254,42.2398],[-5.2365,42.2733],[-5.1827,42.2642],[-5.112,42.3118]]],[[[-5.5167,42.0934],[-5.4809,42.0524],[-5.4216,42.0307],[-5.4474,42.0137],[-5.4315,42.0043],[-5.4383,41.9674],[-5.4853,41.9851],[-5.4714,42.0101],[-5.5167,42.0934]]],[[[-5.3221,42.2677],[-5.3018,42.2692],[-5.3033,42.252],[-5.3413,42.2327],[-5.3453,42.2678],[-5.3221,42.2677]]]]}},{"type":"Feature","properties":{"name":"Zamora"},"geometry":{"type":"MultiPolygon","coordinates":[[[[-6.7611,42.2399],[-6.7038,42.2094],[-6.6386,42.2173],[-6.6133,42.2032],[-6.526,42.2034],[-6.4976,42.182],[-6.4279,42.2019],[-6.3126,42.2066],[-6.2937,42.178],[-6.2124,42.1481],[-6.1602,42.1658],[-6.0493,42.1599],[-5.9535,42.1237],[-5.9481,42.1419],[-5.9116,42.1406],[-5.8974,42.1561],[-5.8449,42.1107],[-5.7767,42.1358],[-5.7552,42.1366],[-5.7429,42.1133],[-5.6768,42.1203],[-5.6872,42.1379],[-5.6676,42.1421],[-5.6201,42.1067],[-5.635,42.082],[-5.5885,42.0773],[-5.5866,42.0509],[-5.5777,42.0654],[-5.5607,42.056],[-5.5434,42.0994],[-5.5261,42.1038],[-5.4714,42.0101],[-5.4856,41.9858],[-5.4631,41.9755],[-5.4383,41.9674],[-5.4315,42.0043],[-5.4474,42.0137],[-5.3844,42.0421],[-5.3255,42.0204],[-5.2806,41.9788],[-5.2605,41.9846],[-5.2547,41.9816],[-5.3352,41.9375],[-5.2937,41.9199],[-5.3111,41.8916],[-5.3065,41.8578],[-5.3304,41.8318],[-5.2786,41.8148],[-5.3914,41.7605],[-5.3752,41.7198],[-5.3617,41.7288],[-5.3581,41.6997],[-5.3274,41.6805],[-5.3289,41.6159],[-5.2705,41.6011],[-5.2931,41.5744],[-5.2289,41.5284],[-5.3447,41.4793],[-5.3248,41.4553],[-5.3392,41.4256],[-5.3075,41.4141],[-5.3346,41.3706],[-5.2917,41.2692],[-5.3022,41.2593],[-5.2937,41.2263],[-5.3403,41.1941],[-5.3303,41.1776],[-5.2887,41.182],[-5.2979,41.1259],[-5.3289,41.1172],[-5.357,41.1408],[-5.387,41.1359],[-5.4181,41.1877],[-5.4769,41.1783],[-5.4698,41.1579],[-5.4843,41.1455],[-5.4853,41.1789],[-5.5651,41.217],[-5.5879,41.2024],[-5.6283,41.2145],[-5.6628,41.2458],[-5.7673,41.2157],[-5.8977,41.2386],[-5.9213,41.2182],[-5.9131,41.1783],[-5.9532,41.1401],[-5.9792,41.1746],[-6.0218,41.1553],[-6.0275,41.1791],[-6.0088,41.2005],[-6.062,41.2211],[-6.1093,41.2126],[-6.1345,41.1904],[-6.3177,41.2709],[-6.4791,41.2884],[-6.4376,41.3057],[-6.4162,41.348],[-6.3796,41.3572],[-6.3899,41.3854],[-6.3183,41.3861],[-6.3328,41.4115],[-6.2981,41.4312],[-6.3058,41.4495],[-6.2851,41.4784],[-6.2624,41.4865],[-6.2559,41.5139],[-6.1894,41.575],[-6.3022,41.6627],[-6.4445,41.6848],[-6.4985,41.6571],[-6.5482,41.6856],[-6.5491,41.7254],[-6.569,41.7435],[-6.5158,41.8707],[-6.5712,41.8836],[-6.5458,41.9359],[-6.5738,41.9607],[-6.5885,41.9678],[-6.6212,41.94],[-6.6993,41.9333],[-6.7506,41.9434],[-6.7687,41.9839],[-6.7856,41.9889],[-6.8115,41.9925],[-6.8212,41.9463],[-6.8444,41.9423],[-6.9417,41.9443],[-6.9579,41.9693],[-6.9845,41.9736],[-6.9911,41.9883],[-6.9611,42.0279],[-6.9748,42.0552],[-7.0118,42.0524],[-7.0336,42.0742],[-7.0027,42.0842],[-6.9898,42.1213],[-6.949,42.1357],[-6.9428,42.1733],[-6.9011,42.1896],[-6.8869,42.2144],[-6.8436,42.2283],[-6.7967,42.209],[-6.7915,42.2522],[-6.7611,42.2399]]]]}}]}